Artemis II (spacecraft) (-1024)
1 01024U 00000A   26092.13160665  .00000000  00000-0  00000-0 0  00018
2 01024  28.3622 357.8585 9713706  79.8947   3.9333  0.07889849    015